{
    "links": {
        "self": "http://www.neowsapp.com/rest/v1/neo/54053942?api_key=iIulBulltgU6a56xZRHN4H3l9WmuAYTsLGpBGhQ2"
    },
    "id": "54053942",
    "neo_reference_id": "54053942",
    "name": "(2020 RN4)",
    "designation": "2020 RN4",
    "nasa_jpl_url": "http://ssd.jpl.nasa.gov/sbdb.cgi?sstr=54053942",
    "absolute_magnitude_h": 24.238,
    "estimated_diameter": {
        "kilometers": {
            "estimated_diameter_min": 0.037753305,
            "estimated_diameter_max": 0.0844189563
        },
        "meters": {
            "estimated_diameter_min": 37.7533049972,
            "estimated_diameter_max": 84.418956349
        },
        "miles": {
            "estimated_diameter_min": 0.0234588089,
            "estimated_diameter_max": 0.0524554913
        },
        "feet": {
            "estimated_diameter_min": 123.862553167,
            "estimated_diameter_max": 276.9650887481
        }
    },
    "is_potentially_hazardous_asteroid": false,
    "close_approach_data": [
        {
            "close_approach_date": "2020-09-01",
            "close_approach_date_full": "2020-Sep-01 17:32",
            "epoch_date_close_approach": 1598981520000,
            "relative_velocity": {
                "kilometers_per_second": "15.8391418657",
                "kilometers_per_hour": "57020.910716543",
                "miles_per_hour": "35430.5764393986"
            },
            "miss_distance": {
                "astronomical": "0.1805375616",
                "lunar": "70.2291114624",
                "kilometers": "27008034.670353792",
                "miles": "16782014.5518026496"
            },
            "orbiting_body": "Earth"
        }
    ],
    "orbital_data": {
        "orbit_id": "2",
        "orbit_determination_date": "2020-09-14 06:56:03",
        "first_observation_date": "2020-09-10",
        "last_observation_date": "2020-09-14",
        "data_arc_in_days": 4,
        "observations_used": 16,
        "orbit_uncertainty": "9",
        "minimum_orbit_intersection": ".179269",
        "jupiter_tisserand_invariant": "3.894",
        "epoch_osculation": "2459104.5",
        "eccentricity": ".3577950124432016",
        "semi_major_axis": "1.769250059886263",
        "inclination": "28.97499760010577",
        "ascending_node_longitude": "345.3400059166887",
        "orbital_period": "859.571990395068",
        "perihelion_distance": "1.136221212694122",
        "perihelion_argument": "323.4345879992822",
        "aphelion_distance": "2.402278907078403",
        "perihelion_time": "2459060.499364853179",
        "mean_anomaly": "18.42804189742761",
        "mean_motion": ".4188130884005891",
        "equinox": "J2000",
        "orbit_class": {
            "orbit_class_type": "AMO",
            "orbit_class_description": "Near-Earth asteroid orbits similar to that of 1221 Amor",
            "orbit_class_range": "1.017 AU < q (perihelion) < 1.3 AU"
        }
    },
    "is_sentry_object": false
}